[{"OBJECT_NAME":"STARLINK-5767","OBJECT_ID":"2023-020T","EPOCH":"2026-03-09T22:00:01.999584","MEAN_MOTION":15.13072971,"ECCENTRICITY":8.839e-5,"INCLINATION":43.0001,"RA_OF_ASC_NODE":2.8554,"ARG_OF_PERICENTER":253.5362,"MEAN_ANOMALY":331.6672,"EPHEMERIS_TYPE":0,"CLASSIFICATION_TYPE":"U","NORAD_CAT_ID":55586,"ELEMENT_SET_NO":999,"REV_AT_EPOCH":573,"BSTAR":0.0015565881,"MEAN_MOTION_DOT":0.00027911,"MEAN_MOTION_DDOT":0},{"OBJECT_NAME":"GEESAT-4 05","OBJECT_ID":"2025-170E","EPOCH":"2026-03-09T22:10:53.623200","MEAN_MOTION":15.15083101,"ECCENTRICITY":0.00102728,"INCLINATION":50.0002,"RA_OF_ASC_NODE":229.6714,"ARG_OF_PERICENTER":163.1129,"MEAN_ANOMALY":197.0167,"EPHEMERIS_TYPE":0,"CLASSIFICATION_TYPE":"U","NORAD_CAT_ID":65123,"ELEMENT_SET_NO":999,"REV_AT_EPOCH":3229,"BSTAR":0.00052791785,"MEAN_MOTION_DOT":9.735e-5,"MEAN_MOTION_DDOT":0}]
